NORAD_CAT_ID,OBJECT_NAME,OBJECT_TYPE,EPOCH,MEAN_MOTION,ECCENTRICITY,INCLINATION,RA_OF_ASC_NODE,ARG_OF_PERICENTER,MEAN_ANOMALY,BSTAR,MEAN_MOTION_DOT,MEAN_MOTION_DDOT,TLE_LINE0,TLE_LINE1,TLE_LINE2,SEMIMAJOR_AXIS,PERIOD,APOGEE,PERIGEE,DECAYED
52495.0,STARLINK-3905,PAYLOAD,2023-09-27 20:21:21,15.08841948,0.0001338,53.2158,101.7305,86.6683,273.4462,0.00033481,5.045e-05,0.0,0 STARLINK-3905,1 52495U 22049AW  23270.84816572  .00005045  00000-0  33481-3 0  9993,2 52495  53.2158 101.7305 0001338  86.6683 273.4462 15.08841948 77617,6917.874,95.437,540.665,538.814,0.0
52495.0,STARLINK-3905,PAYLOAD,2023-09-28 20:12:07,15.08851935,0.0001267,53.2161,97.2692,109.372,250.7409,0.00031576,4.743e-05,0.0,0 STARLINK-3905,1 52495U 22049AW  23271.84175827  .00004743  00000-0  31576-3 0  9992,2 52495  53.2161  97.2692 0001267 109.3720 250.7409 15.08851935 77600,6917.844,95.437,540.585,538.832,0.0
52495.0,STARLINK-3905,PAYLOAD,2023-09-29 12:05:59,15.08846716,0.0001305,53.217,94.2959,106.7411,253.3725,0.00015593,2.195e-05,0.0,0 STARLINK-3905,1 52495U 22049AW  23272.50415750  .00002195  00000-0  15593-3 0  9998,2 52495  53.2170  94.2959 0001305 106.7411 253.3725 15.08846716 77863,6917.86,95.437,540.628,538.822,0.0
52495.0,STARLINK-3905,PAYLOAD,2023-09-29 23:13:41,15.08856281,0.0001269,53.2161,92.2145,97.4293,262.6843,0.00037713,5.722e-05,0.0,0 STARLINK-3905,1 52495U 22049AW  23272.96783626  .00005722  00000-0  37713-3 0  9995,2 52495  53.2161  92.2145 0001269  97.4293 262.6843 15.08856281 77773,6917.831,95.437,540.573,538.818,0.0
52495.0,STARLINK-3905,PAYLOAD,2023-09-30 18:18:19,15.08843222,0.0001144,53.2174,88.645,109.2934,250.8182,0.00017318,2.47e-05,0.0,0 STARLINK-3905,1 52495U 22049AW  23273.76272073  .00002470  00000-0  17318-3 0  9999,2 52495  53.2174  88.6450 0001144 109.2934 250.8182 15.08843222 78059,6917.871,95.437,540.527,538.944,0.0
52495.0,STARLINK-3905,PAYLOAD,2023-09-30 21:29:05,15.08846055,0.0001381,53.2171,88.049,104.5585,255.556,0.00028174,4.2e-05,0.0,0 STARLINK-3905,1 52495U 22049AW  23273.89520009  .00004200  00000-0  28174-3 0  9993,2 52495  53.2171  88.0490 0001381 104.5585 255.5560 15.08846055 77910,6917.862,95.437,540.682,538.772,0.0
52495.0,STARLINK-3905,PAYLOAD,2023-10-01 18:09:05,15.08852127,0.000145,53.2171,84.1825,93.9001,266.2157,0.00051326,7.893e-05,0.0,0 STARLINK-3905,1 52495U 22049AW  23274.75631831  .00007893  00000-0  51326-3 0  9991,2 52495  53.2171  84.1825 0001450  93.9001 266.2157 15.08852127 78043,6917.843,95.437,540.711,538.705,0.0
52495.0,STARLINK-3905,PAYLOAD,2023-10-02 11:38:20,15.08845533,0.000143,53.2176,80.9107,94.9738,265.1418,0.00021489,3.134e-05,0.0,0 STARLINK-3905,1 52495U 22049AW  23275.48495934  .00003134  00000-0  21489-3 0  9995,2 52495  53.2176  80.9107 0001430  94.9738 265.1418 15.08845533 78312,6917.863,95.437,540.718,538.739,0.0
52495.0,STARLINK-3905,PAYLOAD,2023-10-02 17:59:53,15.0884181,0.0001385,53.217,79.7245,78.5795,281.5353,6.4343e-05,7.36e-06,0.0,0 STARLINK-3905,1 52495U 22049AW  23275.74992022  .00000736  00000-0  64343-4 0  9996,2 52495  53.2170  79.7245 0001385  78.5795 281.5353 15.08841810 78195,6917.875,95.437,540.698,538.782,0.0
52495.0,STARLINK-3905,PAYLOAD,2023-10-03 03:32:12,15.08831201,0.000194,53.2178,77.9392,80.9801,279.1411,-7.697e-05,-1.513e-05,0.0,0 STARLINK-3905,1 52495U 22049AW  23276.14736746 -.00001513  00000-0 -76970-4 0  9995,2 52495  53.2178  77.9392 0001940  80.9801 279.1411 15.08831201 78414,6917.907,95.438,541.114,538.43,0.0
52495.0,STARLINK-3905,PAYLOAD,2023-10-03 14:39:54,15.0883919,0.0001452,53.217,75.8575,78.996,281.1195,-4.1236e-05,-9.44e-06,0.0,0 STARLINK-3905,1 52495U 22049AW  23276.61104222 -.00000944  00000-0 -41236-4 0  9999,2 52495  53.2170  75.8575 0001452  78.9960 281.1195 15.08839190 78324,6917.883,95.438,540.752,538.743,0.0
52495.0,STARLINK-3905,PAYLOAD,2023-10-03 16:15:17,15.08839833,0.0001512,53.2171,75.5602,78.2668,281.8494,-1.5277e-05,-5.31e-06,0.0,0 STARLINK-3905,1 52495U 22049AW  23276.67728207 -.00000531  00000-0 -15277-4 0  9998,2 52495  53.2171  75.5602 0001512  78.2668 281.8494 15.08839833 78499,6917.881,95.438,540.792,538.7,0.0
52495.0,STARLINK-3905,PAYLOAD,2023-10-03 22:36:49,15.08849723,0.0001494,53.2176,74.3698,91.5191,268.5973,0.0001365,1.886e-05,0.0,0 STARLINK-3905,1 52495U 22049AW  23276.94223621  .00001886  00000-0  13650-3 0  9992,2 52495  53.2176  74.3698 0001494  91.5191 268.5973 15.08849723 78532,6917.851,95.437,540.749,538.682,0.0
52495.0,STARLINK-3905,PAYLOAD,2023-10-04 11:19:54,15.08837381,0.0001394,53.218,71.9923,85.4923,274.6229,6.5994e-05,7.62e-06,0.0,0 STARLINK-3905,1 52495U 22049AW  23277.47216369  .00000762  00000-0  65994-4 0  9993,2 52495  53.2180  71.9923 0001394  85.4923 274.6229 15.08837381 78613,6917.888,95.438,540.718,538.789,0.0
52495.0,STARLINK-3905,PAYLOAD,2023-10-04 17:41:27,15.08846007,0.0001528,53.2177,70.8009,103.4003,256.716,0.00020336,2.95e-05,0.0,0 STARLINK-3905,1 52495U 22049AW  23277.73711946  .00002950  00000-0  20336-3 0  9994,2 52495  53.2177  70.8009 0001528 103.4003 256.7160 15.08846007 78655,6917.862,95.437,540.784,538.67,0.0
52495.0,STARLINK-3905,PAYLOAD,2023-10-05 09:35:18,15.08840951,0.0001494,53.217,67.8328,80.8284,279.2877,0.00015583,2.193e-05,0.0,0 STARLINK-3905,1 52495U 22049AW  23278.39952372  .00002193  00000-0  15583-3 0  9994,2 52495  53.2170  67.8328 0001494  80.8284 279.2877 15.08840951 78757,6917.877,95.437,540.776,538.709,0.0
52495.0,STARLINK-3905,PAYLOAD,2023-10-05 17:32:13,15.08850856,0.0001435,53.2173,66.3408,107.4848,252.6301,0.0002418,3.564e-05,0.0,0 STARLINK-3905,1 52495U 22049AW  23278.73071664  .00003564  00000-0  24180-3 0  9994,2 52495  53.2173  66.3408 0001435 107.4848 252.6301 15.08850856 78808,6917.847,95.437,540.705,538.719,0.0
52495.0,STARLINK-3905,PAYLOAD,2023-10-06 09:26:06,15.08830971,0.0001493,53.2178,63.3665,121.9644,238.1494,-3.4441e-05,-8.36e-06,0.0,0 STARLINK-3905,1 52495U 22049AW  23279.39312797 -.00000836  00000-0 -34441-4 0  9995,2 52495  53.2178  63.3665 0001493 121.9644 238.1494 15.08830971 78903,6917.908,95.438,540.806,538.74,0.0
52495.0,STARLINK-3905,PAYLOAD,2023-10-06 14:12:15,15.08835836,0.0001488,53.218,62.479,96.8725,263.2437,4.9644e-07,-2.8e-06,0.0,0 STARLINK-3905,1 52495U 22049AW  23279.59184790 -.00000280  00000-0  49644-6 0  9992,2 52495  53.2180  62.4790 0001488  96.8725 263.2437 15.08835836 78775,6917.893,95.438,540.787,538.729,0.0
52495.0,STARLINK-3905,PAYLOAD,2023-10-06 15:47:38,15.08836512,0.0001459,53.2175,62.1817,89.4878,270.6281,2.4309e-05,9.9e-07,0.0,0 STARLINK-3905,1 52495U 22049AW  23279.65808832  .00000099  00000-0  24309-4 0  9995,2 52495  53.2175  62.1817 0001459  89.4878 270.6281 15.08836512 78783,6917.891,95.438,540.765,538.747,0.0
52495.0,STARLINK-3905,PAYLOAD,2023-10-07 09:16:53,15.08839536,0.0001615,53.2177,58.9117,88.1312,271.9866,0.00021288,3.102e-05,0.0,0 STARLINK-3905,1 52495U 22049AW  23280.38673135  .00003102  00000-0  21288-3 0  9993,2 52495  53.2177  58.9117 0001615  88.1312 271.9866 15.08839536 79057,6917.882,95.438,540.864,538.63,0.0
52495.0,STARLINK-3905,PAYLOAD,2023-10-07 14:03:02,15.08844558,0.0001611,53.2175,58.0197,87.509,272.6087,0.00029729,4.447e-05,0.0,0 STARLINK-3905,1 52495U 22049AW  23280.58544987  .00004447  00000-0  29729-3 0  9998,2 52495  53.2175  58.0197 0001611  87.5090 272.6087 15.08844558 78924,6917.866,95.437,540.846,538.617,0.0
52495.0,STARLINK-3905,PAYLOAD,2023-10-07 18:49:11,15.08856384,0.0001494,53.2175,57.1261,94.4907,265.6256,0.00048935,7.512e-05,0.0,0 STARLINK-3905,1 52495U 22049AW  23280.78416493  .00007512  00000-0  48935-3 0  9996,2 52495  53.2175  57.1261 0001494  94.4907 265.6256 15.08856384 79111,6917.83,95.437,540.729,538.662,0.0
52495.0,STARLINK-3905,PAYLOAD,2023-10-08 02:46:08,15.08835272,0.0001793,53.2185,55.6405,89.2911,270.8286,0.00010514,1.385e-05,0.0,0 STARLINK-3905,1 52495U 22049AW  23281.11537515  .00001385  00000-0  10514-3 0  9997,2 52495  53.2185  55.6405 0001793  89.2911 270.8286 15.08835272 79163,6917.895,95.438,541.0,538.519,0.0
52495.0,STARLINK-3905,PAYLOAD,2023-10-08 13:53:49,15.08847325,0.0001403,53.2174,53.5591,85.307,274.8083,0.00034162,5.154e-05,0.0,0 STARLINK-3905,1 52495U 22049AW  23281.57904985  .00005154  00000-0  34162-3 0  9999,2 52495  53.2174  53.5591 0001403  85.3070 274.8083 15.08847325 79076,6917.858,95.437,540.694,538.752,0.0
52495.0,STARLINK-3905,PAYLOAD,2023-10-08 15:29:12,15.08853604,0.0001414,53.2179,53.2616,87.6991,272.4163,0.00053172,8.188e-05,0.0,0 STARLINK-3905,1 52495U 22049AW  23281.64528833  .00008188  00000-0  53172-3 0  9993,2 52495  53.2179  53.2616 0001414  87.6991 272.4163 15.08853604 79244,6917.839,95.437,540.682,538.726,0.0
52495.0,STARLINK-3905,PAYLOAD,2023-10-09 08:58:27,15.0884499,0.0001429,53.2181,49.9885,82.3766,277.7389,0.00048558,7.45e-05,0.0,0 STARLINK-3905,1 52495U 22049AW  23282.37393194  .00007450  00000-0  48558-3 0  9997,2 52495  53.2181  49.9885 0001429  82.3766 277.7389 15.08844990 79353,6917.865,95.437,540.719,538.742,0.0
52495.0,STARLINK-3905,PAYLOAD,2023-10-09 13:44:37,15.0884528,0.0001126,53.2182,49.0959,94.3075,265.8046,0.0004646,7.115e-05,0.0,0 STARLINK-3905,1 52495U 22049AW  23282.57265087  .00007115  00000-0  46460-3 0  9996,2 52495  53.2182  49.0959 0001126  94.3075 265.8046 15.08845280 79224,6917.864,95.437,540.508,538.95,0.0
52495.0,STARLINK-3905,PAYLOAD,2023-10-09 15:20:00,15.08849214,0.0001135,53.2179,48.7986,88.3039,271.8083,0.00056099,8.654e-05,0.0,0 STARLINK-3905,1 52495U 22049AW  23282.63889057  .00008654  00000-0  56099-3 0  9990,2 52495  53.2179  48.7986 0001135  88.3039 271.8083 15.08849214 79239,6917.852,95.437,540.502,538.932,0.0
52495.0,STARLINK-3905,PAYLOAD,2023-10-10 13:35:23,15.08853052,0.0001274,53.2181,44.6378,88.7848,271.329,0.00045254,6.924e-05,0.0,0 STARLINK-3905,1 52495U 22049AW  23283.56624695  .00006924  00000-0  45254-3 0  9997,2 52495  53.2181  44.6378 0001274  88.7848 271.3290 15.08853052 79531,6917.84,95.437,540.587,538.824,0.0
